[{"OBJECT_NAME":"STARLINK-5865","OBJECT_ID":"2023-088F","EPOCH":"2026-03-09T10:53:59.688384","MEAN_MOTION":15.02533595,"ECCENTRICITY":0.00011783,"INCLINATION":43.0027,"RA_OF_ASC_NODE":108.8078,"ARG_OF_PERICENTER":270.98,"MEAN_ANOMALY":89.0907,"EPHEMERIS_TYPE":0,"CLASSIFICATION_TYPE":"U","NORAD_CAT_ID":57053,"ELEMENT_SET_NO":999,"REV_AT_EPOCH":15033,"BSTAR":-4.665618e-6,"MEAN_MOTION_DOT":-2.67e-6,"MEAN_MOTION_DDOT":0},{"OBJECT_NAME":"PSLV DEB","OBJECT_ID":"2001-049CS","EPOCH":"2026-03-09T17:28:51.612960","MEAN_MOTION":14.96014952,"ECCENTRICITY":0.00345383,"INCLINATION":98.0485,"RA_OF_ASC_NODE":147.0031,"ARG_OF_PERICENTER":251.2293,"MEAN_ANOMALY":231.4093,"EPHEMERIS_TYPE":0,"CLASSIFICATION_TYPE":"U","NORAD_CAT_ID":27146,"ELEMENT_SET_NO":999,"REV_AT_EPOCH":30162,"BSTAR":0.00055338741,"MEAN_MOTION_DOT":6.222e-5,"MEAN_MOTION_DDOT":0}]
